{
    "links": {
        "self": "http://www.neowsapp.com/rest/v1/neo/3761477?api_key=iIulBulltgU6a56xZRHN4H3l9WmuAYTsLGpBGhQ2"
    },
    "id": "3761477",
    "neo_reference_id": "3761477",
    "name": "(2016 UA26)",
    "designation": "2016 UA26",
    "nasa_jpl_url": "http://ssd.jpl.nasa.gov/sbdb.cgi?sstr=3761477",
    "absolute_magnitude_h": 23.7,
    "estimated_diameter": {
        "kilometers": {
            "estimated_diameter_min": 0.0483676488,
            "estimated_diameter_max": 0.1081533507
        },
        "meters": {
            "estimated_diameter_min": 48.3676488219,
            "estimated_diameter_max": 108.1533506775
        },
        "miles": {
            "estimated_diameter_min": 0.0300542543,
            "estimated_diameter_max": 0.0672033557
        },
        "feet": {
            "estimated_diameter_min": 158.6865169607,
            "estimated_diameter_max": 354.8338390368
        }
    },
    "is_potentially_hazardous_asteroid": false,
    "close_approach_data": [
        {
            "close_approach_date": "2016-10-13",
            "close_approach_date_full": "2016-Oct-13 19:31",
            "epoch_date_close_approach": 1476387060000,
            "relative_velocity": {
                "kilometers_per_second": "13.221276868",
                "kilometers_per_hour": "47596.5967247881",
                "miles_per_hour": "29574.6742260218"
            },
            "miss_distance": {
                "astronomical": "0.1046471132",
                "lunar": "40.7077270348",
                "kilometers": "15654985.236368884",
                "miles": "9727556.7530792392"
            },
            "orbiting_body": "Earth"
        }
    ],
    "orbital_data": {
        "orbit_id": "5",
        "orbit_determination_date": "2017-04-06 08:22:50",
        "first_observation_date": "2016-10-22",
        "last_observation_date": "2016-10-29",
        "data_arc_in_days": 7,
        "observations_used": 33,
        "orbit_uncertainty": "9",
        "minimum_orbit_intersection": ".101758",
        "jupiter_tisserand_invariant": "3.944",
        "epoch_osculation": "2457685.5",
        "eccentricity": ".4875938015930152",
        "semi_major_axis": "1.764376923863475",
        "inclination": "11.8527864030168",
        "ascending_node_longitude": "223.996946466098",
        "orbital_period": "856.0230922186232",
        "perihelion_distance": ".9040776721138933",
        "perihelion_argument": "100.6184226323712",
        "aphelion_distance": "2.624676175613057",
        "perihelion_time": "2457632.372096470881",
        "mean_anomaly": "22.34290808780911",
        "mean_motion": ".4205494025481945",
        "equinox": "J2000",
        "orbit_class": {
            "orbit_class_type": "APO",
            "orbit_class_description": "Near-Earth asteroid orbits which cross the Earth’s orbit similar to that of 1862 Apollo",
            "orbit_class_range": "a (semi-major axis) > 1.0 AU; q (perihelion) < 1.017 AU"
        }
    },
    "is_sentry_object": false
}